NORAD_CAT_ID,OBJECT_NAME,OBJECT_TYPE,EPOCH,MEAN_MOTION,ECCENTRICITY,INCLINATION,RA_OF_ASC_NODE,ARG_OF_PERICENTER,MEAN_ANOMALY,BSTAR,MEAN_MOTION_DOT,MEAN_MOTION_DDOT,TLE_LINE0,TLE_LINE1,TLE_LINE2,SEMIMAJOR_AXIS,PERIOD,APOGEE,PERIGEE,DECAYED
53272.0,STARLINK-4122,PAYLOAD,2024-05-29 05:31:40,15.08836251,0.0001327,53.2162,219.6566,82.6328,277.4815,-1.2376e-05,-4.85e-06,0.0,0 STARLINK-4122,1 53272U 22086AG  24150.23032658 -.00000485  00000-0 -12376-4 0  9990,2 53272  53.2162 219.6566 0001327  82.6328 277.4815 15.08836251102979,6917.892,95.438,540.675,538.839,0.0
53272.0,STARLINK-4122,PAYLOAD,2024-05-29 11:53:12,15.08837989,0.0001308,53.2171,218.4672,81.5621,278.5519,7.0172e-05,8.29e-06,0.0,0 STARLINK-4122,1 53272U 22086AG  24150.49528932  .00000829  00000-0  70172-4 0  9991,2 53272  53.2171 218.4672 0001308  81.5621 278.5519 15.08837989103194,6917.887,95.438,540.656,538.847,0.0
53272.0,STARLINK-4122,PAYLOAD,2024-05-30 11:43:59,15.08844659,0.0001385,53.217,214.0059,77.0059,283.1087,8.2067e-05,1.019e-05,0.0,0 STARLINK-4122,1 53272U 22086AG  24151.48888624  .00001019  00000-0  82067-4 0  9996,2 53272  53.2170 214.0059 0001385  77.0059 283.1087 15.08844659103165,6917.866,95.437,540.689,538.773,0.0
53272.0,STARLINK-4122,PAYLOAD,2024-05-30 13:19:22,15.08845234,0.0001382,53.2171,213.7087,79.0112,281.1036,8.3916e-05,1.048e-05,0.0,0 STARLINK-4122,1 53272U 22086AG  24151.55512556  .00001048  00000-0  83916-4 0  9998,2 53272  53.2171 213.7087 0001382  79.0112 281.1036 15.08845234103355,6917.864,95.437,540.685,538.773,0.0
53272.0,STARLINK-4122,PAYLOAD,2024-05-31 11:34:46,15.08844358,0.0001429,53.2167,209.5473,76.5175,283.5977,0.00013114,1.8e-05,0.0,0 STARLINK-4122,1 53272U 22086AG  24152.48248588  .00001800  00000-0  13114-3 0  9990,2 53272  53.2167 209.5473 0001429  76.5175 283.5977 15.08844358103496,6917.867,95.437,540.721,538.744,0.0
53272.0,STARLINK-4122,PAYLOAD,2024-06-01 03:28:38,15.08840011,0.0001267,53.2159,206.5739,89.8833,270.2304,6.3905e-06,-1.86e-06,0.0,0 STARLINK-4122,1 53272U 22086AG  24153.14489137 -.00000186  00000-0  63905-5 0  9993,2 53272  53.2159 206.5739 0001267  89.8833 270.2304 15.08840011103418,6917.88,95.438,540.622,538.869,0.0
53272.0,STARLINK-4122,PAYLOAD,2024-06-01 09:50:11,15.0883528,0.000127,53.2158,205.3839,89.3109,270.8028,-1.6075e-05,-5.44e-06,0.0,0 STARLINK-4122,1 53272U 22086AG  24153.40985486 -.00000544  00000-0 -16075-4 0  9994,2 53272  53.2158 205.3839 0001270  89.3109 270.8028 15.08835280103635,6917.895,95.438,540.638,538.881,0.0
53272.0,STARLINK-4122,PAYLOAD,2024-06-02 09:40:57,15.08840861,0.0001192,53.2168,200.922,92.7773,267.3355,0.00012183,1.652e-05,0.0,0 STARLINK-4122,1 53272U 22086AG  24154.40344819  .00001652  00000-0  12183-3 0  9998,2 53272  53.2168 200.9220 0001192  92.7773 267.3355 15.08840861103601,6917.878,95.438,540.567,538.918,0.0
53272.0,STARLINK-4122,PAYLOAD,2024-06-03 09:31:45,15.08840511,0.0001387,53.216,196.4606,93.1818,266.9333,9.1237e-05,1.164e-05,0.0,0 STARLINK-4122,1 53272U 22086AG  24155.39705085  .00001164  00000-0  91237-4 0  9999,2 53272  53.2160 196.4606 0001387  93.1818 266.9333 15.08840511103930,6917.879,95.438,540.703,538.784,0.0
53272.0,STARLINK-4122,PAYLOAD,2024-06-04 09:22:31,15.08848535,0.0001376,53.2164,192.001,92.4478,267.6672,9.4842e-05,1.222e-05,0.0,0 STARLINK-4122,1 53272U 22086AG  24156.39064457  .00001222  00000-0  94842-4 0  9991,2 53272  53.2164 192.0010 0001376  92.4478 267.6672 15.08848535104082,6917.854,95.437,540.671,538.767,0.0
53272.0,STARLINK-4122,PAYLOAD,2024-06-04 18:54:50,15.08845213,0.0001312,53.2157,190.2166,90.2179,269.8964,7.7265e-05,9.42e-06,0.0,0 STARLINK-4122,1 53272U 22086AG  24156.78808583  .00000942  00000-0  77265-4 0  9998,2 53272  53.2157 190.2166 0001312  90.2179 269.8964 15.08845213103964,6917.864,95.437,540.637,538.822,0.0
53272.0,STARLINK-4122,PAYLOAD,2024-06-05 02:51:46,15.0883991,0.0001684,53.2153,188.729,81.1685,278.9497,5.3753e-05,5.68e-06,0.0,0 STARLINK-4122,1 53272U 22086AG  24157.11929145  .00000568  00000-0  53753-4 0  9994,2 53272  53.2153 188.7290 0001684  81.1685 278.9497 15.08839910104019,6917.881,95.438,540.911,538.581,0.0
53272.0,STARLINK-4122,PAYLOAD,2024-06-05 10:48:42,15.08834405,0.0001446,53.217,187.2458,96.8192,263.2965,3.1385e-06,-2.38e-06,0.0,0 STARLINK-4122,1 53272U 22086AG  24157.45049542 -.00000238  00000-0  31385-5 0  9998,2 53272  53.2170 187.2458 0001446  96.8192 263.2965 15.08834405104246,6917.897,95.438,540.763,538.762,0.0
53272.0,STARLINK-4122,PAYLOAD,2024-06-05 18:45:38,15.08834952,0.0001447,53.2173,185.759,94.8336,265.2821,-3.3604e-05,-8.23e-06,0.0,0 STARLINK-4122,1 53272U 22086AG  24157.78169694 -.00000823  00000-0 -33604-4 0  9991,2 53272  53.2173 185.7590 0001447  94.8336 265.2821 15.08834952104114,6917.896,95.438,540.762,538.76,0.0
53272.0,STARLINK-4122,PAYLOAD,2024-06-06 09:04:07,15.08831944,0.0001319,53.2164,183.0809,87.7742,272.3401,-9.6634e-05,-1.825e-05,0.0,0 STARLINK-4122,1 53272U 22086AG  24158.37786348 -.00001825  00000-0 -96634-4 0  9993,2 53272  53.2164 183.0809 0001319  87.7742 272.3401 15.08831944104388,6917.905,95.438,540.682,538.858,0.0
53272.0,STARLINK-4122,PAYLOAD,2024-06-07 08:54:54,15.08833962,0.0001313,53.2163,178.6202,86.0838,274.0304,7.5899e-05,9.2e-06,0.0,0 STARLINK-4122,1 53272U 22086AG  24159.37146239  .00000920  00000-0  75899-4 0  9996,2 53272  53.2163 178.6202 0001313  86.0838 274.0304 15.08833962104356,6917.899,95.438,540.672,538.856,0.0
53272.0,STARLINK-4122,PAYLOAD,2024-06-07 18:27:12,15.08839097,0.0001316,53.2164,176.8362,86.4337,273.6805,0.00010811,1.433e-05,0.0,0 STARLINK-4122,1 53272U 22086AG  24159.76889978  .00001433  00000-0  10811-3 0  9995,2 53272  53.2164 176.8362 0001316  86.4337 273.6805 15.08839097104597,6917.883,95.438,540.659,538.838,0.0
53272.0,STARLINK-4122,PAYLOAD,2024-06-08 05:34:54,15.0884179,0.0001194,53.2157,174.7539,87.3247,272.7881,0.0001898,2.734e-05,0.0,0 STARLINK-4122,1 53272U 22086AG  24160.23257605  .00002734  00000-0  18980-3 0  9995,2 53272  53.2157 174.7539 0001194  87.3247 272.7881 15.08841790104481,6917.875,95.437,540.566,538.914,0.0
53272.0,STARLINK-4122,PAYLOAD,2024-06-08 08:45:40,15.08845343,0.000122,53.2159,174.1592,87.6892,272.424,0.00020378,2.957e-05,0.0,0 STARLINK-4122,1 53272U 22086AG  24160.36505432  .00002957  00000-0  20378-3 0  9994,2 53272  53.2159 174.1592 0001220  87.6892 272.4240 15.08845343104681,6917.864,95.437,540.573,538.885,0.0
53272.0,STARLINK-4122,PAYLOAD,2024-06-08 18:17:59,15.08842538,0.0001218,53.2158,172.3754,86.7492,273.3639,0.00014769,2.064e-05,0.0,0 STARLINK-4122,1 53272U 22086AG  24160.76249750  .00002064  00000-0  14769-3 0  9992,2 53272  53.2158 172.3754 0001218  86.7492 273.3639 15.08842538104745,6917.873,95.437,540.58,538.895,0.0
53272.0,STARLINK-4122,PAYLOAD,2024-06-09 05:25:42,15.0883835,0.0001276,53.216,170.2944,86.6567,273.4571,6.3687e-05,7.26e-06,0.0,0 STARLINK-4122,1 53272U 22086AG  24161.22618326  .00000726  00000-0  63687-4 0  9990,2 53272  53.2160 170.2944 0001276  86.6567 273.4571 15.08838350104633,6917.885,95.438,540.633,538.868,0.0
53272.0,STARLINK-4122,PAYLOAD,2024-06-09 07:01:05,15.08839799,0.0001256,53.2156,169.9969,87.8925,272.221,7.606e-05,9.23e-06,0.0,0 STARLINK-4122,1 53272U 22086AG  24161.29242185  .00000923  00000-0  76060-4 0  9991,2 53272  53.2156 169.9969 0001256  87.8925 272.2210 15.08839799104825,6917.881,95.438,540.615,538.877,0.0
53272.0,STARLINK-4122,PAYLOAD,2024-06-09 18:08:46,15.0884373,0.0001345,53.2166,167.9135,92.7524,267.3622,5.4917e-05,5.86e-06,0.0,0 STARLINK-4122,1 53272U 22086AG  24161.75609887  .00000586  00000-0  54917-4 0  9990,2 53272  53.2166 167.9135 0001345  92.7524 267.3622 15.08843730104897,6917.869,95.437,540.664,538.804,0.0
53272.0,STARLINK-4122,PAYLOAD,2024-06-10 05:16:28,15.08847631,0.0001251,53.2161,165.8333,89.0979,271.0157,3.1356e-05,2.11e-06,0.0,0 STARLINK-4122,1 53272U 22086AG  24162.21977489  .00000211  00000-0  31356-4 0  9995,2 53272  53.2161 165.8333 0001251  89.0979 271.0157 15.08847631104785,6917.857,95.437,540.587,538.857,0.0
53272.0,STARLINK-4122,PAYLOAD,2024-06-10 06:51:51,15.08849148,0.0001306,53.2165,165.5348,96.5256,263.5885,2.7202e-05,1.45e-06,0.0,0 STARLINK-4122,1 53272U 22086AG  24162.28601321  .00000145  00000-0  27202-4 0  9992,2 53272  53.2165 165.5348 0001306  96.5256 263.5885 15.08849148104974,6917.852,95.437,540.621,538.814,0.0
53272.0,STARLINK-4122,PAYLOAD,2024-06-11 05:07:15,15.08837071,0.0001268,53.216,161.3717,96.5409,263.5728,3.6638e-05,2.95e-06,0.0,0 STARLINK-4122,1 53272U 22086AG  24163.21337943  .00000295  00000-0  36638-4 0  9991,2 53272  53.2160 161.3717 0001268  96.5409 263.5728 15.08837071104934,6917.889,95.438,540.632,538.877,0.0
53272.0,STARLINK-4122,PAYLOAD,2024-06-11 09:53:25,15.08838681,0.0001209,53.2158,160.4814,89.5202,270.5928,3.7195e-05,3.04e-06,0.0,0 STARLINK-4122,1 53272U 22086AG  24163.41209888  .00000304  00000-0  37195-4 0  9999,2 53272  53.2158 160.4814 0001209  89.5202 270.5928 15.08838681105149,6917.884,95.438,540.586,538.913,0.0
53272.0,STARLINK-4122,PAYLOAD,2024-06-12 06:33:26,15.08840555,0.0001233,53.2159,156.6156,89.0558,271.0576,1.7482e-05,-1e-07,0.0,0 STARLINK-4122,1 53272U 22086AG  24164.27321862 -.00000010  00000-0  17482-4 0  9993,2 53272  53.2159 156.6156 0001233  89.0558 271.0576 15.08840555105094,6917.879,95.438,540.597,538.891,0.0
53272.0,STARLINK-4122,PAYLOAD,2024-06-12 16:05:45,15.08835926,0.000122,53.2158,154.8314,86.9369,273.1763,2.7075e-05,1.43e-06,0.0,0 STARLINK-4122,1 53272U 22086AG  24164.67066148  .00000143  00000-0  27075-4 0  9995,2 53272  53.2158 154.8314 0001220  86.9369 273.1763 15.08835926105335,6917.893,95.438,540.602,538.914,0.0
53272.0,STARLINK-4122,PAYLOAD,2024-06-13 04:48:50,15.08833331,0.0001262,53.2161,152.4524,86.857,273.2567,2.5467e-05,1.17e-06,0.0,0 STARLINK-4122,1 53272U 22086AG  24165.20058513  .00000117  00000-0  25467-4 0  9996,2 53272  53.2161 152.4524 0001262  86.8570 273.2567 15.08833331105235,6917.901,95.438,540.639,538.893,0.0
